KUIPER-00061            
1 64521U 25134X   26012.72085832  .00004611  00000+0  63312-3 0  9998
2 64521  51.9000 115.5787 0000787  92.2746 267.8307 14.79950262 31845
KUIPER-00062            
1 64522U 25134Y   26012.70582498 -.00002600  00000+0 -27378-3 0  9997
2 64522  51.8975 119.4778 0007506 105.2223 254.9572 14.85136974 31800
KUIPER-00063            
1 64523U 25134Z   26012.57501235 -.00003508  00000+0 -43161-3 0  9999
2 64523  51.9015 126.2251 0000626  49.2481 310.8536 14.79908979 31692
KUIPER-00064            
1 64524U 25134AA  26012.71276610  .00004425  00000+0  60885-3 0  9991
2 64524  51.9020 123.0367 0006788 166.9094 193.2045 14.79944236 31755
KUIPER-00065            
1 64525U 25134AB  26012.70694265  .00004008  00000+0  55356-3 0  9995
2 64525  51.9021 128.2111 0006034 101.0137 259.1504 14.80005200 31666
KUIPER-00066            
1 64526U 25134AC  26012.57895147  .00010426  00000+0  46725-3 0  9994
2 64526  51.8881  89.2098 0000915  39.7447 320.3600 15.21769642 32216
KUIPER-00069            
1 64816U 25151A   26012.79933026  .00003120  00000+0  43804-3 0  9996
2 64816  51.8999 167.7612 0003838 109.1862 250.9515 14.79942081 28481
KUIPER-00070            
1 64817U 25151B   26012.73861117 -.00005980  00000+0 -75487-3 0  9992
2 64817  51.8977 192.9783 0011182  75.2275 284.9925 14.79930664 28137
